[{"OBJECT_NAME":"STARLINK-35327","OBJECT_ID":"2025-259T","EPOCH":"2025-12-09T04:00:01.998720","MEAN_MOTION":15.40626064,"ECCENTRICITY":0.0001054,"INCLINATION":43.0003,"RA_OF_ASC_NODE":68.2737,"ARG_OF_PERICENTER":261.7099,"MEAN_ANOMALY":174.7275,"EPHEMERIS_TYPE":0,"CLASSIFICATION_TYPE":"U","NORAD_CAT_ID":66439,"ELEMENT_SET_NO":999,"REV_AT_EPOCH":570,"BSTAR":0.0020188,"MEAN_MOTION_DOT":0.00084759,"MEAN_MOTION_DDOT":0},{"OBJECT_NAME":"STARLINK-35405","OBJECT_ID":"2025-259U","EPOCH":"2025-12-09T04:00:01.998720","MEAN_MOTION":15.45997945,"ECCENTRICITY":0.0001323,"INCLINATION":43,"RA_OF_ASC_NODE":68.1804,"ARG_OF_PERICENTER":276.0212,"MEAN_ANOMALY":198.846,"EPHEMERIS_TYPE":0,"CLASSIFICATION_TYPE":"U","NORAD_CAT_ID":66440,"ELEMENT_SET_NO":999,"REV_AT_EPOCH":570,"BSTAR":-0.045461,"MEAN_MOTION_DOT":-0.02023411,"MEAN_MOTION_DDOT":0},{"OBJECT_NAME":"STARLINK-35426","OBJECT_ID":"2025-259V","EPOCH":"2025-12-08T13:33:01.912608","MEAN_MOTION":15.50516656,"ECCENTRICITY":0.0004241,"INCLINATION":43.0012,"RA_OF_ASC_NODE":71.6764,"ARG_OF_PERICENTER":306.6467,"MEAN_ANOMALY":53.4003,"EPHEMERIS_TYPE":0,"CLASSIFICATION_TYPE":"U","NORAD_CAT_ID":66441,"ELEMENT_SET_NO":999,"REV_AT_EPOCH":552,"BSTAR":0.0027132,"MEAN_MOTION_DOT":0.00161833,"MEAN_MOTION_DDOT":0},{"OBJECT_NAME":"STARLINK-34724","OBJECT_ID":"2025-259W","EPOCH":"2025-12-09T00:00:02.000160","MEAN_MOTION":15.49472751,"ECCENTRICITY":0.00013126,"INCLINATION":43.0009,"RA_OF_ASC_NODE":69.1254,"ARG_OF_PERICENTER":264.5323,"MEAN_ANOMALY":10.4834,"EPHEMERIS_TYPE":0,"CLASSIFICATION_TYPE":"U","NORAD_CAT_ID":66442,"ELEMENT_SET_NO":999,"REV_AT_EPOCH":567,"BSTAR":-0.042422799,"MEAN_MOTION_DOT":-0.02121366,"MEAN_MOTION_DDOT":0},{"OBJECT_NAME":"STARLINK-35219","OBJECT_ID":"2025-259X","EPOCH":"2025-12-08T22:48:33.716736","MEAN_MOTION":15.50624735,"ECCENTRICITY":9.6e-5,"INCLINATION":43,"RA_OF_ASC_NODE":69.411,"ARG_OF_PERICENTER":286.7645,"MEAN_ANOMALY":73.311,"EPHEMERIS_TYPE":0,"CLASSIFICATION_TYPE":"U","NORAD_CAT_ID":66443,"ELEMENT_SET_NO":999,"REV_AT_EPOCH":547,"BSTAR":0.0017406,"MEAN_MOTION_DOT":0.00103295,"MEAN_MOTION_DDOT":0},{"OBJECT_NAME":"STARLINK-35360","OBJECT_ID":"2025-259Y","EPOCH":"2025-12-08T15:03:17.437824","MEAN_MOTION":15.50615761,"ECCENTRICITY":0.0002256,"INCLINATION":43.0012,"RA_OF_ASC_NODE":71.2839,"ARG_OF_PERICENTER":271.2736,"MEAN_ANOMALY":88.7866,"EPHEMERIS_TYPE":0,"CLASSIFICATION_TYPE":"U","NORAD_CAT_ID":66444,"ELEMENT_SET_NO":999,"REV_AT_EPOCH":553,"BSTAR":0.0019177,"MEAN_MOTION_DOT":0.00113963,"MEAN_MOTION_DDOT":0},{"OBJECT_NAME":"STARLINK-34698","OBJECT_ID":"2025-259Z","EPOCH":"2025-12-08T13:31:32.441088","MEAN_MOTION":15.50582419,"ECCENTRICITY":0.0002429,"INCLINATION":43.0056,"RA_OF_ASC_NODE":71.6672,"ARG_OF_PERICENTER":260.1314,"MEAN_ANOMALY":99.9272,"EPHEMERIS_TYPE":0,"CLASSIFICATION_TYPE":"U","NORAD_CAT_ID":66445,"ELEMENT_SET_NO":999,"REV_AT_EPOCH":541,"BSTAR":0.0015532,"MEAN_MOTION_DOT":0.00091866,"MEAN_MOTION_DDOT":0},{"OBJECT_NAME":"STARLINK-34986","OBJECT_ID":"2025-259AA","EPOCH":"2025-12-08T22:47:33.457056","MEAN_MOTION":15.50657569,"ECCENTRICITY":9.81e-5,"INCLINATION":42.9984,"RA_OF_ASC_NODE":69.4048,"ARG_OF_PERICENTER":344.9284,"MEAN_ANOMALY":15.1546,"EPHEMERIS_TYPE":0,"CLASSIFICATION_TYPE":"U","NORAD_CAT_ID":66446,"ELEMENT_SET_NO":999,"REV_AT_EPOCH":558,"BSTAR":0.0021306,"MEAN_MOTION_DOT":0.00127053,"MEAN_MOTION_DDOT":0},{"OBJECT_NAME":"STARLINK-34851","OBJECT_ID":"2025-259AB","EPOCH":"2025-12-08T22:46:35.260608","MEAN_MOTION":15.50606148,"ECCENTRICITY":0.0001046,"INCLINATION":42.9997,"RA_OF_ASC_NODE":69.3985,"ARG_OF_PERICENTER":277.5852,"MEAN_ANOMALY":82.4889,"EPHEMERIS_TYPE":0,"CLASSIFICATION_TYPE":"U","NORAD_CAT_ID":66447,"ELEMENT_SET_NO":999,"REV_AT_EPOCH":547,"BSTAR":0.001459,"MEAN_MOTION_DOT":0.00086281,"MEAN_MOTION_DDOT":0},{"OBJECT_NAME":"STARLINK-35355","OBJECT_ID":"2025-259AC","EPOCH":"2025-12-08T22:46:05.628864","MEAN_MOTION":15.50602449,"ECCENTRICITY":0.0001124,"INCLINATION":43.0007,"RA_OF_ASC_NODE":69.3957,"ARG_OF_PERICENTER":293.8629,"MEAN_ANOMALY":66.2114,"EPHEMERIS_TYPE":0,"CLASSIFICATION_TYPE":"U","NORAD_CAT_ID":66448,"ELEMENT_SET_NO":999,"REV_AT_EPOCH":558,"BSTAR":0.0014292,"MEAN_MOTION_DOT":0.00084482,"MEAN_MOTION_DDOT":0},{"OBJECT_NAME":"STARLINK-34720","OBJECT_ID":"2025-259AD","EPOCH":"2025-12-08T22:45:36.258048","MEAN_MOTION":15.5060001,"ECCENTRICITY":6.25e-5,"INCLINATION":42.9998,"RA_OF_ASC_NODE":69.3926,"ARG_OF_PERICENTER":331.1257,"MEAN_ANOMALY":28.9568,"EPHEMERIS_TYPE":0,"CLASSIFICATION_TYPE":"U","NORAD_CAT_ID":66449,"ELEMENT_SET_NO":999,"REV_AT_EPOCH":547,"BSTAR":0.0014242,"MEAN_MOTION_DOT":0.00084172,"MEAN_MOTION_DDOT":0},{"OBJECT_NAME":"STARLINK-35334","OBJECT_ID":"2025-259AE","EPOCH":"2025-12-08T22:45:06.386112","MEAN_MOTION":15.50615981,"ECCENTRICITY":0.0001305,"INCLINATION":42.9969,"RA_OF_ASC_NODE":69.3883,"ARG_OF_PERICENTER":271.9278,"MEAN_ANOMALY":88.1433,"EPHEMERIS_TYPE":0,"CLASSIFICATION_TYPE":"U","NORAD_CAT_ID":66450,"ELEMENT_SET_NO":999,"REV_AT_EPOCH":558,"BSTAR":0.0020122,"MEAN_MOTION_DOT":0.00119681,"MEAN_MOTION_DDOT":0},{"OBJECT_NAME":"STARLINK-35643","OBJECT_ID":"2025-262A","EPOCH":"2025-12-09T04:00:01.998720","MEAN_MOTION":15.40632769,"ECCENTRICITY":0.0001452,"INCLINATION":43.0003,"RA_OF_ASC_NODE":92.1977,"ARG_OF_PERICENTER":263.8048,"MEAN_ANOMALY":205.8762,"EPHEMERIS_TYPE":0,"CLASSIFICATION_TYPE":"U","NORAD_CAT_ID":66456,"ELEMENT_SET_NO":999,"REV_AT_EPOCH":506,"BSTAR":0.0024067,"MEAN_MOTION_DOT":0.00101347,"MEAN_MOTION_DDOT":0},{"OBJECT_NAME":"STARLINK-35466","OBJECT_ID":"2025-262B","EPOCH":"2025-12-09T04:00:01.998720","MEAN_MOTION":15.4064302,"ECCENTRICITY":0.0001183,"INCLINATION":43.0003,"RA_OF_ASC_NODE":92.1368,"ARG_OF_PERICENTER":280.4949,"MEAN_ANOMALY":214.0585,"EPHEMERIS_TYPE":0,"CLASSIFICATION_TYPE":"U","NORAD_CAT_ID":66457,"ELEMENT_SET_NO":999,"REV_AT_EPOCH":506,"BSTAR":0.0020333,"MEAN_MOTION_DOT":0.00085428,"MEAN_MOTION_DDOT":0},{"OBJECT_NAME":"STARLINK-35684","OBJECT_ID":"2025-262C","EPOCH":"2025-12-09T04:00:01.998720","MEAN_MOTION":15.40655211,"ECCENTRICITY":0.000146,"INCLINATION":43.0003,"RA_OF_ASC_NODE":92.1662,"ARG_OF_PERICENTER":262.511,"MEAN_ANOMALY":219.5519,"EPHEMERIS_TYPE":0,"CLASSIFICATION_TYPE":"U","NORAD_CAT_ID":66458,"ELEMENT_SET_NO":999,"REV_AT_EPOCH":506,"BSTAR":0.0018425,"MEAN_MOTION_DOT":0.00077329,"MEAN_MOTION_DDOT":0},{"OBJECT_NAME":"STARLINK-35449","OBJECT_ID":"2025-262D","EPOCH":"2025-12-09T04:00:01.998720","MEAN_MOTION":15.40633107,"ECCENTRICITY":0.0001552,"INCLINATION":43.0002,"RA_OF_ASC_NODE":92.105,"ARG_OF_PERICENTER":277.9489,"MEAN_ANOMALY":229.0701,"EPHEMERIS_TYPE":0,"CLASSIFICATION_TYPE":"U","NORAD_CAT_ID":66459,"ELEMENT_SET_NO":999,"REV_AT_EPOCH":506,"BSTAR":0.0017195,"MEAN_MOTION_DOT":0.00072045,"MEAN_MOTION_DDOT":0},{"OBJECT_NAME":"STARLINK-35424","OBJECT_ID":"2025-262E","EPOCH":"2025-12-09T04:00:01.998720","MEAN_MOTION":15.41992836,"ECCENTRICITY":0.0001712,"INCLINATION":43.0002,"RA_OF_ASC_NODE":92.0773,"ARG_OF_PERICENTER":275.206,"MEAN_ANOMALY":243.4983,"EPHEMERIS_TYPE":0,"CLASSIFICATION_TYPE":"U","NORAD_CAT_ID":66460,"ELEMENT_SET_NO":999,"REV_AT_EPOCH":506,"BSTAR":-0.045128,"MEAN_MOTION_DOT":-0.01777245,"MEAN_MOTION_DDOT":0}]
